{"fetched_at":"2026-07-20T18:28:52.300Z","source":"https://celestrak.org/NORAD/elements/gp.php?GROUP=oneweb&FORMAT=JSON","constellation":"oneweb","records":[{"OBJECT_NAME":"ONEWEB-0683","OBJECT_ID":"2023-068K","EPOCH":"2026-07-20T03:22:06.506112","CLASSIFICATION_TYPE":"U","MEAN_MOTION":13.15548859,"ECCENTRICITY":0.00021464,"INCLINATION":87.899,"RA_OF_ASC_NODE":252.6302,"ARG_OF_PERICENTER":91.5212,"MEAN_ANOMALY":268.6164,"EPHEMERIS_TYPE":0,"NORAD_CAT_ID":56719,"ELEMENT_SET_NO":999,"REV_AT_EPOCH":15375,"BSTAR":0.00032522126,"MEAN_MOTION_DOT":0.00000135,"MEAN_MOTION_DDOT":0},{"OBJECT_NAME":"ONEWEB-0684","OBJECT_ID":"2023-068L","EPOCH":"2026-07-20T03:33:30.408768","CLASSIFICATION_TYPE":"U","MEAN_MOTION":13.15549864,"ECCENTRICITY":0.00031339,"INCLINATION":87.8989,"RA_OF_ASC_NODE":252.6181,"ARG_OF_PERICENTER":114.4037,"MEAN_ANOMALY":245.7421,"EPHEMERIS_TYPE":0,"NORAD_CAT_ID":56720,"ELEMENT_SET_NO":999,"REV_AT_EPOCH":15358,"BSTAR":0.00019445361,"MEAN_MOTION_DOT":8.6e-7,"MEAN_MOTION_DDOT":0},{"OBJECT_NAME":"ONEWEB-0686","OBJECT_ID":"2023-068M","EPOCH":"2026-07-20T02:39:31.953600","CLASSIFICATION_TYPE":"U","MEAN_MOTION":13.16594022,"ECCENTRICITY":0.00023819,"INCLINATION":87.9068,"RA_OF_ASC_NODE":222.2504,"ARG_OF_PERICENTER":90.2688,"MEAN_ANOMALY":269.8716,"EPHEMERIS_TYPE":0,"NORAD_CAT_ID":56721,"ELEMENT_SET_NO":999,"REV_AT_EPOCH":15604,"BSTAR":0.000057562837,"MEAN_MOTION_DOT":3.5e-7,"MEAN_MOTION_DDOT":0},{"OBJECT_NAME":"ONEWEB-0694","OBJECT_ID":"2023-068N","EPOCH":"2026-07-20T02:48:39.300192","CLASSIFICATION_TYPE":"U","MEAN_MOTION":13.16592961,"ECCENTRICITY":0.00021586,"INCLINATION":87.909,"RA_OF_ASC_NODE":222.2202,"ARG_OF_PERICENTER":80.9761,"MEAN_ANOMALY":279.1614,"EPHEMERIS_TYPE":0,"NORAD_CAT_ID":56722,"ELEMENT_SET_NO":999,"REV_AT_EPOCH":15610,"BSTAR":0.00020658154,"MEAN_MOTION_DOT":9.2e-7,"MEAN_MOTION_DDOT":0},{"OBJECT_NAME":"ONEWEB-0696","OBJECT_ID":"2023-068P","EPOCH":"2026-07-20T02:31:53.593824","CLASSIFICATION_TYPE":"U","MEAN_MOTION":13.15549584,"ECCENTRICITY":0.00021295,"INCLINATION":87.897,"RA_OF_ASC_NODE":252.6618,"ARG_OF_PERICENTER":109.1643,"MEAN_ANOMALY":250.9718,"EPHEMERIS_TYPE":0,"NORAD_CAT_ID":56723,"ELEMENT_SET_NO":999,"REV_AT_EPOCH":15369,"BSTAR":-0.00010712258,"MEAN_MOTION_DOT":-2.7e-7,"MEAN_MOTION_DDOT":0},{"OBJECT_NAME":"ONEWEB-0703","OBJECT_ID":"2023-068Q","EPOCH":"2026-07-20T02:45:35.945568","CLASSIFICATION_TYPE":"U","MEAN_MOTION":13.15548362,"ECCENTRICITY":0.00019508,"INCLINATION":87.8974,"RA_OF_ASC_NODE":252.6418,"ARG_OF_PERICENTER":123.3938,"MEAN_ANOMALY":236.7379,"EPHEMERIS_TYPE":0,"NORAD_CAT_ID":56724,"ELEMENT_SET_NO":999,"REV_AT_EPOCH":15358,"BSTAR":0.00010030969,"MEAN_MOTION_DOT":5.1e-7,"MEAN_MOTION_DDOT":0},{"OBJECT_NAME":"ONEWEB-0721","OBJECT_ID":"2023-068R","EPOCH":"2026-07-20T03:03:15.382368","CLASSIFICATION_TYPE":"U","MEAN_MOTION":13.22471272,"ECCENTRICITY":0.00017435,"INCLINATION":86.6737,"RA_OF_ASC_NODE":74.9993,"ARG_OF_PERICENTER":80.6418,"MEAN_ANOMALY":279.4912,"EPHEMERIS_TYPE":0,"NORAD_CAT_ID":56725,"ELEMENT_SET_NO":999,"REV_AT_EPOCH":16229,"BSTAR":-0.000076590244,"MEAN_MOTION_DOT":-1.7e-7,"MEAN_MOTION_DDOT":0},{"OBJECT_NAME":"ONEWEB-0015","OBJECT_ID":"2024-188A","EPOCH":"2026-07-20T00:58:42.711168","CLASSIFICATION_TYPE":"U","MEAN_MOTION":13.11415998,"ECCENTRICITY":0.00013891,"INCLINATION":87.8885,"RA_OF_ASC_NODE":14.5499,"ARG_OF_PERICENTER":79.7283,"MEAN_ANOMALY":280.4002,"EPHEMERIS_TYPE":0,"NORAD_CAT_ID":61594,"ELEMENT_SET_NO":999,"REV_AT_EPOCH":8876,"BSTAR":-0.0013712162,"MEAN_MOTION_DOT":-0.00000473,"MEAN_MOTION_DDOT":0},{"OBJECT_NAME":"ONEWEB-0687","OBJECT_ID":"2024-188B","EPOCH":"2026-07-20T04:29:23.239392","CLASSIFICATION_TYPE":"U","MEAN_MOTION":13.17648264,"ECCENTRICITY":0.00018323,"INCLINATION":87.9146,"RA_OF_ASC_NODE":359.3104,"ARG_OF_PERICENTER":78.4054,"MEAN_ANOMALY":281.7284,"EPHEMERIS_TYPE":0,"NORAD_CAT_ID":61595,"ELEMENT_SET_NO":999,"REV_AT_EPOCH":9024,"BSTAR":-0.0005061467,"MEAN_MOTION_DOT":-0.00000184,"MEAN_MOTION_DDOT":0},{"OBJECT_NAME":"ONEWEB-0688","OBJECT_ID":"2024-188C","EPOCH":"2026-07-20T03:21:20.082528","CLASSIFICATION_TYPE":"U","MEAN_MOTION":13.17648389,"ECCENTRICITY":0.00008908,"INCLINATION":87.9146,"RA_OF_ASC_NODE":359.3195,"ARG_OF_PERICENTER":59.7342,"MEAN_ANOMALY":300.3878,"EPHEMERIS_TYPE":0,"NORAD_CAT_ID":61596,"ELEMENT_SET_NO":999,"REV_AT_EPOCH":9023,"BSTAR":0.00019742536,"MEAN_MOTION_DOT":9e-7,"MEAN_MOTION_DDOT":0},{"OBJECT_NAME":"ONEWEB-0689","OBJECT_ID":"2024-188D","EPOCH":"2026-07-19T23:57:41.098176","CLASSIFICATION_TYPE":"U","MEAN_MOTION":13.11418191,"ECCENTRICITY":0.00020637,"INCLINATION":87.8896,"RA_OF_ASC_NODE":14.5214,"ARG_OF_PERICENTER":84.9985,"MEAN_ANOMALY":275.1378,"EPHEMERIS_TYPE":0,"NORAD_CAT_ID":61597,"ELEMENT_SET_NO":999,"REV_AT_EPOCH":8875,"BSTAR":0.00097838625,"MEAN_MOTION_DOT":0.00000359,"MEAN_MOTION_DDOT":0},{"OBJECT_NAME":"ONEWEB-0690","OBJECT_ID":"2024-188E","EPOCH":"2026-07-20T00:12:20.996640","CLASSIFICATION_TYPE":"U","MEAN_MOTION":13.11417223,"ECCENTRICITY":0.00017665,"INCLINATION":87.8895,"RA_OF_ASC_NODE":14.5294,"ARG_OF_PERICENTER":112.2958,"MEAN_ANOMALY":247.8357,"EPHEMERIS_TYPE":0,"NORAD_CAT_ID":61598,"ELEMENT_SET_NO":999,"REV_AT_EPOCH":8893,"BSTAR":0.0014395341,"MEAN_MOTION_DOT":0.00000523,"MEAN_MOTION_DDOT":0},{"OBJECT_NAME":"ONEWEB-0691","OBJECT_ID":"2024-188F","EPOCH":"2026-07-20T00:05:01.650912","CLASSIFICATION_TYPE":"U","MEAN_MOTION":13.11417403,"ECCENTRICITY":0.00016093,"INCLINATION":87.8907,"RA_OF_ASC_NODE":14.4418,"ARG_OF_PERICENTER":80.4995,"MEAN_ANOMALY":279.6315,"EPHEMERIS_TYPE":0,"NORAD_CAT_ID":61599,"ELEMENT_SET_NO":999,"REV_AT_EPOCH":8878,"BSTAR":0.0011113672,"MEAN_MOTION_DOT":0.00000407,"MEAN_MOTION_DDOT":0},{"OBJECT_NAME":"ONEWEB-0692","OBJECT_ID":"2024-188G","EPOCH":"2026-07-20T00:34:18.101568","CLASSIFICATION_TYPE":"U","MEAN_MOTION":13.11416519,"ECCENTRICITY":0.00026383,"INCLINATION":87.8885,"RA_OF_ASC_NODE":14.5452,"ARG_OF_PERICENTER":92.5015,"MEAN_ANOMALY":267.6415,"EPHEMERIS_TYPE":0,"NORAD_CAT_ID":61600,"ELEMENT_SET_NO":999,"REV_AT_EPOCH":8877,"BSTAR":0.00074555601,"MEAN_MOTION_DOT":0.00000277,"MEAN_MOTION_DDOT":0},{"OBJECT_NAME":"ONEWEB-0693","OBJECT_ID":"2024-188H","EPOCH":"2026-07-19T23:59:39.854976","CLASSIFICATION_TYPE":"U","MEAN_MOTION":13.17649169,"ECCENTRICITY":0.00016107,"INCLINATION":87.9142,"RA_OF_ASC_NODE":359.3658,"ARG_OF_PERICENTER":119.3279,"MEAN_ANOMALY":240.8013,"EPHEMERIS_TYPE":0,"NORAD_CAT_ID":61601,"ELEMENT_SET_NO":999,"REV_AT_EPOCH":9020,"BSTAR":-0.00037817693,"MEAN_MOTION_DOT":-0.00000134,"MEAN_MOTION_DDOT":0},{"OBJECT_NAME":"ONEWEB-0695","OBJECT_ID":"2024-188J","EPOCH":"2026-07-20T05:29:44.352384","CLASSIFICATION_TYPE":"U","MEAN_MOTION":13.11417968,"ECCENTRICITY":0.00023404,"INCLINATION":87.8883,"RA_OF_ASC_NODE":14.4964,"ARG_OF_PERICENTER":85.952,"MEAN_ANOMALY":274.1876,"EPHEMERIS_TYPE":0,"NORAD_CAT_ID":61602,"ELEMENT_SET_NO":999,"REV_AT_EPOCH":8879,"BSTAR":0.00074810118,"MEAN_MOTION_DOT":0.00000278,"MEAN_MOTION_DDOT":0}]}
