ONEWEB-0683             
1 56719U 23068K   26201.14035308  .00000135  00000+0  32522-3 0  9997
2 56719  87.8990 252.6302 0002146  91.5212 268.6164 13.15548859153757
ONEWEB-0684             
1 56720U 23068L   26201.14826862  .00000086  00000+0  19445-3 0  9996
2 56720  87.8989 252.6181 0003133 114.4037 245.7421 13.15549864153589
ONEWEB-0686             
1 56721U 23068M   26201.11078650  .00000035  00000+0  57563-4 0  9996
2 56721  87.9068 222.2504 0002381  90.2688 269.8716 13.16594022156043
ONEWEB-0694             
1 56722U 23068N   26201.11712153  .00000092  00000+0  20658-3 0  9997
2 56722  87.9090 222.2202 0002158  80.9761 279.1614 13.16592961156102
ONEWEB-0696             
1 56723U 23068P   26201.10548141 -.00000027  00000+0 -10712-3 0  9991
2 56723  87.8970 252.6618 0002129 109.1643 250.9718 13.15549584153693
ONEWEB-0703             
1 56724U 23068Q   26201.11499937  .00000051  00000+0  10031-3 0  9990
2 56724  87.8974 252.6418 0001950 123.3938 236.7379 13.15548362153588
ONEWEB-0721             
1 56725U 23068R   26201.12726137 -.00000017  00000+0 -76590-4 0  9994
2 56725  86.6737  74.9993 0001743  80.6418 279.4912 13.22471272162292
ONEWEB-0015             
1 61594U 24188A   26201.04077212 -.00000473  00000+0 -13712-2 0  9993
2 61594  87.8885  14.5499 0001389  79.7283 280.4002 13.11415998 88767
ONEWEB-0687             
1 61595U 24188B   26201.18707453 -.00000184  00000+0 -50615-3 0  9999
2 61595  87.9146 359.3104 0001832  78.4054 281.7284 13.17648264 90249
ONEWEB-0688             
1 61596U 24188C   26201.13981577  .00000090  00000+0  19743-3 0  9997
2 61596  87.9146 359.3195 0000890  59.7342 300.3878 13.17648389 90239
ONEWEB-0689             
1 61597U 24188D   26200.99839234  .00000359  00000+0  97839-3 0  9993
2 61597  87.8896  14.5214 0002063  84.9985 275.1378 13.11418191 88758
ONEWEB-0690             
1 61598U 24188E   26201.00857635  .00000523  00000+0  14395-2 0  9990
2 61598  87.8895  14.5294 0001766 112.2958 247.8357 13.11417223 88938
ONEWEB-0691             
1 61599U 24188F   26201.00349133  .00000407  00000+0  11114-2 0  9997
2 61599  87.8907  14.4418 0001609  80.4995 279.6315 13.11417403 88783
ONEWEB-0692             
1 61600U 24188G   26201.02382062  .00000277  00000+0  74556-3 0  9995
2 61600  87.8885  14.5452 0002638  92.5015 267.6415 13.11416519 88774
ONEWEB-0693             
1 61601U 24188H   26200.99976684 -.00000134  00000+0 -37818-3 0  9994
2 61601  87.9142 359.3658 0001610 119.3279 240.8013 13.17649169 90202
ONEWEB-0695             
1 61602U 24188J   26201.22898556  .00000278  00000+0  74810-3 0  9993
2 61602  87.8883  14.4964 0002340  85.9520 274.1876 13.11417968 88793
